OBJECT_NAME,OBJECT_ID,EPOCH,MEAN_MOTION,ECCENTRICITY,INCLINATION,RA_OF_ASC_NODE,ARG_OF_PERICENTER,MEAN_ANOMALY,EPHEMERIS_TYPE,CLASSIFICATION_TYPE,NORAD_CAT_ID,ELEMENT_SET_NO,REV_AT_EPOCH,BSTAR,MEAN_MOTION_DOT,MEAN_MOTION_DDOT
TOMORROW-S2,2024-149T,2026-07-08T18:34:18.962112,15.33077157,.00032943,97.3813,270.6915,165.0151,195.1189,0,U,60485,999,10539,.17492718E-3,.5511E-4,0
FLOCK 4BE-36,2024-149U,2026-07-08T18:38:48.136128,15.43394438,.00042911,97.3738,274.4730,170.3083,189.8249,0,U,60486,999,10568,.27967151E-3,.12409E-3,0
FLOCK 4BE-25,2024-149V,2026-07-09T04:37:33.544704,15.39431125,.00032946,97.3792,273.5000,156.2094,203.9304,0,U,60487,999,10562,.277744E-3,.10797E-3,0
FLOCK 4BE-31,2024-149W,2026-07-09T01:06:53.876160,15.44977948,.00033799,97.3793,275.6689,166.3128,193.8213,0,U,60488,999,10575,.32502679E-3,.15235E-3,0
FLOCK 4BE-20,2024-149X,2026-07-10T12:47:03.560640,15.38726180,.0004628,97.3694,273.6700,165.1738,194.9644,0,U,60489,999,10580,.25405E-3,.9644E-4,0
FLOCK 4BE-23,2024-149Y,2026-07-09T00:47:36.042720,15.38255639,.00040844,97.3776,272.5504,173.1683,186.9618,0,U,60490,999,10555,.27962152E-3,.10461E-3,0
FLOCK 4BE-17,2024-149AA,2026-07-08T17:26:48.530976,15.40434288,.00039315,97.3765,273.2745,162.8357,197.3023,0,U,60492,999,10557,.28106945E-3,.11296E-3,0
NUSAT-50 (NANCY ROMAN),2024-149AB,2026-07-11T04:04:34.975200,15.30273983,.0004805,97.3787,273.2637,111.3057,248.8697,0,U,60493,999,10579,.20166E-3,.5831E-4,0
FLOCK 4BE-22,2024-149AC,2026-07-11T05:16:54.087744,15.41902678,.0004439,97.3734,276.0197,165.7218,194.4155,0,U,60494,999,10600,.24386E-3,.10279E-3,0
FLOCK 4BE-34,2024-149AD,2026-07-11T04:08:36.689568,15.41867140,.0004428,97.3781,276.8086,172.5030,187.6284,0,U,60495,999,10602,.23843E-3,.10036E-3,0
TYCHE,2024-149AE,2026-07-10T22:33:32.353056,15.25808164,.0002679,97.3751,269.4371,177.6377,182.4874,0,U,60496,999,10552,.1071E-3,.2665E-4,0
FLOCK 4BE-32,2024-149AF,2026-07-08T18:57:44.417088,15.42925610,.00043833,97.3712,273.9609,177.0530,183.0744,0,U,60497,999,10566,.31189442E-3,.13635E-3,0
NUSAT-48 (HENRIETTA LEAVITT),2024-149AG,2026-07-10T04:16:07.925664,15.30220707,.00043336,97.3914,272.5613,173.6918,186.4378,0,U,60498,999,10565,.23360515E-3,.6755E-4,0
NUSAT-49 (KLARA DAN VON NEUMANN),2024-149AJ,2026-07-11T04:49:01.923744,15.30340024,.0002083,97.3780,273.3266,174.2786,185.8478,0,U,60500,999,10580,.17563E-3,.5077E-4,0
FLOCK 4BE-11,2024-149AK,2026-07-10T04:47:11.653152,15.43759592,.00045665,97.3696,275.6385,172.5870,187.5446,0,U,60501,999,10590,.31749865E-3,.14279E-3,0
YAM-7,2024-149AN,2026-07-11T03:49:27.573024,15.32145974,.0003269,97.3781,272.3150,180.7002,179.4236,0,U,60504,999,10572,.14707E-3,.4486E-4,0
FLOCK 4BE-24,2024-149AP,2026-07-09T12:51:25.814016,15.43944372,.00044967,97.3710,275.2320,186.8328,173.2860,0,U,60505,999,10581,.34635346E-3,.15684E-3,0
LUR-1,2024-149AQ,2026-07-11T04:14:20.347296,15.30413362,.000357,97.3737,270.8344,196.3479,163.7647,0,U,60506,999,10564,.13724E-3,.396E-4,0
TANAGER-1,2024-149AR,2026-07-09T16:54:52.663680,15.43935842,.00027632,97.2281,284.8679,147.2432,212.8988,0,U,60507,999,10651,.7232946E-5,.245E-5,0
EAGLEEYE,2024-149AS,2026-07-08T19:10:13.123200,15.75536199,.0004993,97.3703,284.3989,195.9799,164.1310,0,U,60508,999,10633,.66755589E-3,.102225E-2,0
FLOCK 4BE-29,2024-149AT,2026-07-10T21:23:30.663168,15.45223368,.0002957,97.3806,278.1349,185.1010,175.0209,0,U,60509,999,10607,.60528E-3,.28735E-3,0
TRANSPORTER-11 OBJECT AU,2024-149AU,2026-07-11T00:37:26.284224,15.40895030,.0003856,97.3730,275.9465,181.4585,178.6651,0,U,60510,999,10598,.23494E-3,.9571E-4,0
FLOCK 4BE-2,2024-149AV,2026-07-09T15:52:13.296000,15.55382059,.00050911,97.3824,278.6387,188.0676,172.0497,0,U,60511,999,10599,.7547884E-3,.51489E-3,0
FLOCK 4BE-13,2024-149AW,2026-07-11T00:48:06.356160,15.42538524,.0004773,97.3719,276.7020,167.9501,192.1861,0,U,60512,999,10604,.22577E-3,.9714E-4,0
FLOCK 4BE-27,2024-149AX,2026-07-10T05:04:25.230432,15.34858715,.00034657,97.3822,273.0785,199.1987,160.9127,0,U,60513,999,10567,.20358354E-3,.6801E-4,0
FLOCK 4BE-9,2024-149AY,2026-07-09T00:52:37.051680,15.41465848,.00030915,97.3785,274.5287,188.6470,171.4725,0,U,60514,999,10568,.27016402E-3,.11231E-3,0
FLOCK 4BE-6,2024-149BA,2026-07-09T12:54:19.114272,15.40208441,.00037495,97.3785,274.3506,190.1584,169.9587,0,U,60516,999,10571,.26875504E-3,.10716E-3,0
FLOCK 4BE-14,2024-149BB,2026-07-10T12:55:44.550912,15.41751243,.0004831,97.3694,275.5187,192.1520,167.9611,0,U,60517,999,10592,.28755E-3,.12078E-3,0
